[{"OBJECT_NAME":"STARLINK-34047","OBJECT_ID":"2025-092T","EPOCH":"2026-03-09T07:13:20.166240","MEAN_MOTION":15.27591247,"ECCENTRICITY":9.107e-5,"INCLINATION":42.9956,"RA_OF_ASC_NODE":174.8758,"ARG_OF_PERICENTER":329.5437,"MEAN_ANOMALY":30.5361,"EPHEMERIS_TYPE":0,"CLASSIFICATION_TYPE":"U","NORAD_CAT_ID":63821,"ELEMENT_SET_NO":999,"REV_AT_EPOCH":4860,"BSTAR":0.0011082779,"MEAN_MOTION_DOT":0.00030371,"MEAN_MOTION_DDOT":0},{"OBJECT_NAME":"COSMOS 1862","OBJECT_ID":"1987-055A","EPOCH":"2026-03-09T22:37:02.390592","MEAN_MOTION":15.30492139,"ECCENTRICITY":0.00097484,"INCLINATION":82.4856,"RA_OF_ASC_NODE":47.1862,"ARG_OF_PERICENTER":26.6325,"MEAN_ANOMALY":333.5414,"EPHEMERIS_TYPE":0,"CLASSIFICATION_TYPE":"U","NORAD_CAT_ID":18152,"ELEMENT_SET_NO":999,"REV_AT_EPOCH":8987,"BSTAR":0.00034125048,"MEAN_MOTION_DOT":0.00010107,"MEAN_MOTION_DDOT":0}]
